TEVEL2-5                
1 63214U 25052E   26068.96660006  .00021339  00000+0  71765-3 0  9991
2 63214  97.4013 325.3677 0004700  95.3936 264.7842 15.30817434 54919
STARLINK-33745          
1 63714U 25087T   26068.69642497  .00029078  00000+0  99012-3 0  9991
2 63714  53.1584 219.3082 0000960  67.1879 292.9223 15.30197417 49209
